<?xml version='1.0' encoding='utf-8'?>
<q:quakeml xmlns="http://quakeml.org/xmlns/bed/1.2" xmlns:q="http://quakeml.org/xmlns/quakeml/1.2">
  <eventParameters publicID="smi:org.gfz-potsdam.de/geofon/EventParameters">
    <event publicID="smi:org.gfz-potsdam.de/geofon/texnet2022wmmd">
      <preferredOriginID>smi:org.gfz-potsdam.de/geofon/NLL.20221117170218.53264.116304</preferredOriginID>
      <preferredMagnitudeID>smi:org.gfz-potsdam.de/geofon/Magnitude/20221117170222.739536.116338</preferredMagnitudeID>
      <preferredFocalMechanismID>smi:org.gfz-potsdam.de/geofon/FocalMechanism/20221117003721.714512.92750</preferredFocalMechanismID>
      <type>earthquake</type>
      <typeCertainty>known</typeCertainty>
      <description>
        <text>Western Texas</text>
        <type>region name</type>
      </description>
      <creationInfo>
        <agencyID>TXNet</agencyID>
        <author>scevent@sc3primary.beg.utexas.edu</author>
        <creationTime>2022-11-16T21:32:55.683979Z</creationTime>
      </creationInfo>
      <origin publicID="smi:org.gfz-potsdam.de/geofon/NLL.20221117170218.53264.116304">
        <time>
          <value>2022-11-16T21:32:44.481830Z</value>
        </time>
        <latitude>
          <value>31.6367452</value>
          <uncertainty>0.2193609021</uncertainty>
        </latitude>
        <longitude>
          <value>-103.9987871</value>
          <uncertainty>0.2936453823</uncertainty>
        </longitude>
        <depth>
          <value>6902.807617</value>
          <uncertainty>629.622792</uncertainty>
        </depth>
        <methodID>smi:org.gfz-potsdam.de/geofon/NonLinLoc</methodID>
        <earthModelID>smi:org.gfz-potsdam.de/geofon/PB1D-20170918-topoLV</earthModelID>
        <quality>
          <associatedPhaseCount>119</associatedPhaseCount>
          <usedPhaseCount>55</usedPhaseCount>
          <usedStationCount>42</usedStationCount>
          <standardError>0.09978100572</standardError>
          <azimuthalGap>46.07142564</azimuthalGap>
          <secondaryAzimuthalGap>62.72676132</secondaryAzimuthalGap>
          <groundTruthLevel>-</groundTruthLevel>
          <minimumDistance>0.02345152448</minimumDistance>
          <maximumDistance>0.3749718621</maximumDistance>
          <medianDistance>0.3150239362</medianDistance>
        </quality>
        <evaluationMode>manual</evaluationMode>
        <evaluationStatus>final</evaluationStatus>
        <creationInfo>
          <agencyID>TXNet</agencyID>
          <author>daniel</author>
          <creationTime>2022-11-17T17:02:19.722683Z</creationTime>
        </creationInfo>
        <originUncertainty>
          <horizontalUncertainty>462.8109061</horizontalUncertainty>
          <minHorizontalUncertainty>307.9021627</minHorizontalUncertainty>
          <maxHorizontalUncertainty>462.8109061</maxHorizontalUncertainty>
          <azimuthMaxHorizontalUncertainty>68.61737477</azimuthMaxHorizontalUncertainty>
          <confidenceEllipsoid>
            <semiMajorAxisLength>1247078.413</semiMajorAxisLength>
            <semiMinorAxisLength>377909.4905</semiMinorAxisLength>
            <semiIntermediateAxisLength>419051.1494</semiIntermediateAxisLength>
            <majorAxisPlunge>19.61495438</majorAxisPlunge>
            <majorAxisAzimuth>-161.4637085</majorAxisAzimuth>
            <majorAxisRotation>95.96235939</majorAxisRotation>
          </confidenceEllipsoid>
        </originUncertainty>
        <arrival publicID="smi:org.gfz-potsdam.de/geofon/Pick/20221116213904.882278.81130_NLL.20221117170218.53264.116304">
          <pickID>smi:org.gfz-potsdam.de/geofon/Pick/20221116213904.882278.81130</pickID>
          <phase>S</phase>
          <timeCorrection>0.0</timeCorrection>
          <azimuth>114.7184316</azimuth>
          <distance>0.4421683437</distance>
          <takeoffAngle>
            <value>91.9</value>
          </takeoffAngle>
          <timeResidual>0.0495881889</timeResidual>
          <timeWeight>0.7303527392</timeWeight>
        </arrival>
        <arrival publicID="smi:org.gfz-potsdam.de/geofon/Pick/20221116213904.88235.81131_NLL.20221117170218.53264.116304">
          <pickID>smi:org.gfz-potsdam.de/geofon/Pick/20221116213904.88235.81131</pickID>
          <phase>S</phase>
          <timeCorrection>0.0</timeCorrection>
          <azimuth>118.7803512</azimuth>
          <distance>0.4755707842</distance>
          <takeoffAngle>
            <value>91.8</value>
          </takeoffAngle>
          <timeResidual>-0.2109771772</timeResidual>
          <timeWeight>0.6242999354</timeWeight>
        </arrival>
        <arrival publicID="smi:org.gfz-potsdam.de/geofon/Pick/20221116214756.54407.84373_NLL.20221117170218.53264.116304">
          <pickID>smi:org.gfz-potsdam.de/geofon/Pick/20221116214756.54407.84373</pickID>
          <phase>P</phase>
          <timeCorrection>0.0</timeCorrection>
          <azimuth>320.5225295</azimuth>
          <distance>0.05202981106</distance>
          <takeoffAngle>
            <value>138.2</value>
          </takeoffAngle>
          <timeResidual>0.1767528044</timeResidual>
          <timeWeight>0.9235935826</timeWeight>
        </arrival>
        <arrival publicID="smi:org.gfz-potsdam.de/geofon/Pick/20221116214756.544252.84374_NLL.20221117170218.53264.116304">
          <pickID>smi:org.gfz-potsdam.de/geofon/Pick/20221116214756.544252.84374</pickID>
          <phase>S</phase>
          <timeCorrection>0.0</timeCorrection>
          <azimuth>320.5225295</azimuth>
          <distance>0.05202981106</distance>
          <takeoffAngle>
            <value>138.2</value>
          </takeoffAngle>
          <timeResidual>-0.01797428259</timeResidual>
          <timeWeight>1.001004023</timeWeight>
        </arrival>
        <arrival publicID="smi:org.gfz-potsdam.de/geofon/Pick/20221116214756.544409.84377_NLL.20221117170218.53264.116304">
          <pickID>smi:org.gfz-potsdam.de/geofon/Pick/20221116214756.544409.84377</pickID>
          <phase>P</phase>
          <timeCorrection>0.0</timeCorrection>
          <azimuth>328.6132401</azimuth>
          <distance>0.09994640016</distance>
          <takeoffAngle>
            <value>112.8</value>
          </takeoffAngle>
          <timeResidual>0.1543081093</timeResidual>
          <timeWeight>0.8761622957</timeWeight>
        </arrival>
        <arrival publicID="smi:org.gfz-potsdam.de/geofon/Pick/20221116214756.544453.84378_NLL.20221117170218.53264.116304">
          <pickID>smi:org.gfz-potsdam.de/geofon/Pick/20221116214756.544453.84378</pickID>
          <phase>S</phase>
          <timeCorrection>0.0</timeCorrection>
          <azimuth>328.6132401</azimuth>
          <distance>0.09994640016</distance>
          <takeoffAngle>
            <value>112.8</value>
          </takeoffAngle>
          <timeResidual>0.02776428281</timeResidual>
          <timeWeight>1.002165365</timeWeight>
        </arrival>
        <arrival publicID="smi:org.gfz-potsdam.de/geofon/Pick/20221116214756.544502.84379_NLL.20221117170218.53264.116304">
          <pickID>smi:org.gfz-potsdam.de/geofon/Pick/20221116214756.544502.84379</pickID>
          <phase>S</phase>
          <timeCorrection>0.0</timeCorrection>
          <azimuth>313.3900991</azimuth>
          <distance>0.1762233021</distance>
          <takeoffAngle>
            <value>97.6</value>
          </takeoffAngle>
          <timeResidual>-0.6361252515</timeResidual>
          <timeWeight>0.0</timeWeight>
        </arrival>
        <arrival publicID="smi:org.gfz-potsdam.de/geofon/Pick/20221116214756.544546.84380_NLL.20221117170218.53264.116304">
          <pickID>smi:org.gfz-potsdam.de/geofon/Pick/20221116214756.544546.84380</pickID>
          <phase>P</phase>
          <timeCorrection>0.0</timeCorrection>
          <azimuth>313.3900991</azimuth>
          <distance>0.1762233021</distance>
          <takeoffAngle>
            <value>97.6</value>
          </takeoffAngle>
          <timeResidual>0.0699025821</timeResidual>
          <timeWeight>0.9799628791</timeWeight>
        </arrival>
        <arrival publicID="smi:org.gfz-potsdam.de/geofon/Pick/20221116214756.544593.84381_NLL.20221117170218.53264.116304">
          <pickID>smi:org.gfz-potsdam.de/geofon/Pick/20221116214756.544593.84381</pickID>
          <phase>P</phase>
          <timeCorrection>0.0</timeCorrection>
          <azimuth>50.50793085</azimuth>
          <distance>0.1836456002</distance>
          <takeoffAngle>
            <value>97.0</value>
          </takeoffAngle>
          <timeResidual>0.169116343</timeResidual>
          <timeWeight>0.8513160003</timeWeight>
        </arrival>
        <arrival publicID="smi:org.gfz-potsdam.de/geofon/Pick/20221116214756.544638.84382_NLL.20221117170218.53264.116304">
          <pickID>smi:org.gfz-potsdam.de/geofon/Pick/20221116214756.544638.84382</pickID>
          <phase>S</phase>
          <timeCorrection>0.0</timeCorrection>
          <azimuth>50.50793085</azimuth>
          <distance>0.1836456002</distance>
          <takeoffAngle>
            <value>97.0</value>
          </takeoffAngle>
          <timeResidual>0.1732865526</timeResidual>
          <timeWeight>0.7093860465</timeWeight>
        </arrival>
        <arrival publicID="smi:org.gfz-potsdam.de/geofon/Pick/20221116214756.544684.84383_NLL.20221117170218.53264.116304">
          <pickID>smi:org.gfz-potsdam.de/geofon/Pick/20221116214756.544684.84383</pickID>
          <phase>P</phase>
          <timeCorrection>0.0</timeCorrection>
          <azimuth>279.0456291</azimuth>
          <distance>0.2295749498</distance>
          <takeoffAngle>
            <value>94.8</value>
          </takeoffAngle>
          <timeResidual>0.08240049835</timeResidual>
          <timeWeight>0.7767698517</timeWeight>
        </arrival>
        <arrival publicID="smi:org.gfz-potsdam.de/geofon/Pick/20221116215249.515307.86784_NLL.20221117170218.53264.116304">
          <pickID>smi:org.gfz-potsdam.de/geofon/Pick/20221116215249.515307.86784</pickID>
          <phase>S</phase>
          <timeCorrection>0.0</timeCorrection>
          <azimuth>279.0456291</azimuth>
          <distance>0.2295749498</distance>
          <takeoffAngle>
            <value>94.8</value>
          </takeoffAngle>
          <timeResidual>-0.7410304915</timeResidual>
          <timeWeight>0.0</timeWeight>
        </arrival>
        <arrival publicID="smi:org.gfz-potsdam.de/geofon/Pick/20221116215249.51548.86785_NLL.20221117170218.53264.116304">
          <pickID>smi:org.gfz-potsdam.de/geofon/Pick/20221116215249.51548.86785</pickID>
          <phase>S</phase>
          <timeCorrection>0.0</timeCorrection>
          <azimuth>298.9960161</azimuth>
          <distance>0.2485396667</distance>
          <takeoffAngle>
            <value>94.3</value>
          </takeoffAngle>
          <timeResidual>-0.6181800209</timeResidual>
          <timeWeight>0.0</timeWeight>
        </arrival>
        <arrival publicID="smi:org.gfz-potsdam.de/geofon/Pick/20221116215249.515542.86786_NLL.20221117170218.53264.116304">
          <pickID>smi:org.gfz-potsdam.de/geofon/Pick/20221116215249.515542.86786</pickID>
          <phase>P</phase>
          <timeCorrection>0.0</timeCorrection>
          <azimuth>298.9960161</azimuth>
          <distance>0.2485396667</distance>
          <takeoffAngle>
            <value>94.3</value>
          </takeoffAngle>
          <timeResidual>-0.06822705621</timeResidual>
          <timeWeight>1.190912669</timeWeight>
        </arrival>
        <arrival publicID="smi:org.gfz-potsdam.de/geofon/Pick/20221116215249.515612.86787_NLL.20221117170218.53264.116304">
          <pickID>smi:org.gfz-potsdam.de/geofon/Pick/20221116215249.515612.86787</pickID>
          <phase>S</phase>
          <timeCorrection>0.0</timeCorrection>
          <azimuth>157.3088203</azimuth>
          <distance>0.2894799386</distance>
          <takeoffAngle>
            <value>93.4</value>
          </takeoffAngle>
          <timeResidual>-1.001496503</timeResidual>
          <timeWeight>0.0</timeWeight>
        </arrival>
        <arrival publicID="smi:org.gfz-potsdam.de/geofon/Pick/20221116215249.515669.86788_NLL.20221117170218.53264.116304">
          <pickID>smi:org.gfz-potsdam.de/geofon/Pick/20221116215249.515669.86788</pickID>
          <phase>P</phase>
          <timeCorrection>0.0</timeCorrection>
          <azimuth>157.3088203</azimuth>
          <distance>0.2894799386</distance>
          <takeoffAngle>
            <value>93.4</value>
          </takeoffAngle>
          <timeResidual>-0.3936884181</timeResidual>
          <timeWeight>0.0</timeWeight>
        </arrival>
        <arrival publicID="smi:org.gfz-potsdam.de/geofon/Pick/20221116215249.515835.86791_NLL.20221117170218.53264.116304">
          <pickID>smi:org.gfz-potsdam.de/geofon/Pick/20221116215249.515835.86791</pickID>
          <phase>P</phase>
          <timeCorrection>0.0</timeCorrection>
          <azimuth>149.6311203</azimuth>
          <distance>0.4106894349</distance>
          <takeoffAngle>
            <value>92.1</value>
          </takeoffAngle>
          <timeResidual>-0.3054726966</timeResidual>
          <timeWeight>0.0</timeWeight>
        </arrival>
        <arrival publicID="smi:org.gfz-potsdam.de/geofon/Pick/20221116215249.515889.86792_NLL.20221117170218.53264.116304">
          <pickID>smi:org.gfz-potsdam.de/geofon/Pick/20221116215249.515889.86792</pickID>
          <phase>S</phase>
          <timeCorrection>0.0</timeCorrection>
          <azimuth>149.6311203</azimuth>
          <distance>0.4106894349</distance>
          <takeoffAngle>
            <value>92.1</value>
          </takeoffAngle>
          <timeResidual>-0.6322191986</timeResidual>
          <timeWeight>0.0</timeWeight>
        </arrival>
        <arrival publicID="smi:org.gfz-potsdam.de/geofon/Pick/20221116215249.515945.86793_NLL.20221117170218.53264.116304">
          <pickID>smi:org.gfz-potsdam.de/geofon/Pick/20221116215249.515945.86793</pickID>
          <phase>P</phase>
          <timeCorrection>0.0</timeCorrection>
          <azimuth>175.484673</azimuth>
          <distance>0.4256101256</distance>
          <takeoffAngle>
            <value>92.0</value>
          </takeoffAngle>
          <timeResidual>-0.4059632931</timeResidual>
          <timeWeight>0.0</timeWeight>
        </arrival>
        <arrival publicID="smi:org.gfz-potsdam.de/geofon/Pick/20221116215249.516053.86795_NLL.20221117170218.53264.116304">
          <pickID>smi:org.gfz-potsdam.de/geofon/Pick/20221116215249.516053.86795</pickID>
          <phase>P</phase>
          <timeCorrection>0.0</timeCorrection>
          <azimuth>274.6230519</azimuth>
          <distance>0.4292169728</distance>
          <takeoffAngle>
            <value>92.0</value>
          </takeoffAngle>
          <timeResidual>-0.2739291123</timeResidual>
          <timeWeight>0.0</timeWeight>
        </arrival>
        <arrival publicID="smi:org.gfz-potsdam.de/geofon/Pick/20221116215249.516168.86797_NLL.20221117170218.53264.116304">
          <pickID>smi:org.gfz-potsdam.de/geofon/Pick/20221116215249.516168.86797</pickID>
          <phase>P</phase>
          <timeCorrection>0.0</timeCorrection>
          <azimuth>142.324561</azimuth>
          <distance>0.5141647447</distance>
          <takeoffAngle>
            <value>91.7</value>
          </takeoffAngle>
          <timeResidual>-0.2205056102</timeResidual>
          <timeWeight>0.7127222459</timeWeight>
        </arrival>
        <arrival publicID="smi:org.gfz-potsdam.de/geofon/Pick/20221116215249.516222.86798_NLL.20221117170218.53264.116304">
          <pickID>smi:org.gfz-potsdam.de/geofon/Pick/20221116215249.516222.86798</pickID>
          <phase>P</phase>
          <timeCorrection>0.0</timeCorrection>
          <azimuth>89.12392521</azimuth>
          <distance>0.6657049965</distance>
          <takeoffAngle>
            <value>89.8</value>
          </takeoffAngle>
          <timeResidual>-0.1868519873</timeResidual>
          <timeWeight>0.8255633232</timeWeight>
        </arrival>
        <arrival publicID="smi:org.gfz-potsdam.de/geofon/Pick/20221116215249.516274.86799_NLL.20221117170218.53264.116304">
          <pickID>smi:org.gfz-potsdam.de/geofon/Pick/20221116215249.516274.86799</pickID>
          <phase>S</phase>
          <timeCorrection>0.0</timeCorrection>
          <azimuth>89.12392521</azimuth>
          <distance>0.6657049965</distance>
          <takeoffAngle>
            <value>89.8</value>
          </takeoffAngle>
          <timeResidual>-1.535557459</timeResidual>
          <timeWeight>0.0</timeWeight>
        </arrival>
        <arrival publicID="smi:org.gfz-potsdam.de/geofon/Pick/20221116215249.516327.86800_NLL.20221117170218.53264.116304">
          <pickID>smi:org.gfz-potsdam.de/geofon/Pick/20221116215249.516327.86800</pickID>
          <phase>P</phase>
          <timeCorrection>0.0</timeCorrection>
          <azimuth>121.7639879</azimuth>
          <distance>0.6790601459</distance>
          <takeoffAngle>
            <value>87.8</value>
          </takeoffAngle>
          <timeResidual>-0.03542309012</timeResidual>
          <timeWeight>1.091569313</timeWeight>
        </arrival>
        <arrival publicID="smi:org.gfz-potsdam.de/geofon/Pick/20221116215249.516374.86801_NLL.20221117170218.53264.116304">
          <pickID>smi:org.gfz-potsdam.de/geofon/Pick/20221116215249.516374.86801</pickID>
          <phase>S</phase>
          <timeCorrection>0.0</timeCorrection>
          <azimuth>121.7639879</azimuth>
          <distance>0.6790601459</distance>
          <takeoffAngle>
            <value>87.9</value>
          </takeoffAngle>
          <timeResidual>-0.9554084788</timeResidual>
          <timeWeight>0.0</timeWeight>
        </arrival>
        <arrival publicID="smi:org.gfz-potsdam.de/geofon/Pick/20221116215249.516427.86802_NLL.20221117170218.53264.116304">
          <pickID>smi:org.gfz-potsdam.de/geofon/Pick/20221116215249.516427.86802</pickID>
          <phase>P</phase>
          <timeCorrection>0.0</timeCorrection>
          <azimuth>143.2789943</azimuth>
          <distance>0.6919191011</distance>
          <takeoffAngle>
            <value>85.3</value>
          </takeoffAngle>
          <timeResidual>-0.3707963675</timeResidual>
          <timeWeight>0.0</timeWeight>
        </arrival>
        <arrival publicID="smi:org.gfz-potsdam.de/geofon/Pick/20221116215249.516479.86803_NLL.20221117170218.53264.116304">
          <pickID>smi:org.gfz-potsdam.de/geofon/Pick/20221116215249.516479.86803</pickID>
          <phase>S</phase>
          <timeCorrection>0.0</timeCorrection>
          <azimuth>143.2789943</azimuth>
          <distance>0.6919191011</distance>
          <takeoffAngle>
            <value>85.5</value>
          </takeoffAngle>
          <timeResidual>-1.291722763</timeResidual>
          <timeWeight>0.0</timeWeight>
        </arrival>
        <arrival publicID="smi:org.gfz-potsdam.de/geofon/Pick/20221116215503.577442.88046_NLL.20221117170218.53264.116304">
          <pickID>smi:org.gfz-potsdam.de/geofon/Pick/20221116215503.577442.88046</pickID>
          <phase>P</phase>
          <timeCorrection>0.0</timeCorrection>
          <azimuth>114.7184316</azimuth>
          <distance>0.4421683437</distance>
          <takeoffAngle>
            <value>91.9</value>
          </takeoffAngle>
          <timeResidual>0.2013714857</timeResidual>
          <timeWeight>0.7792584495</timeWeight>
        </arrival>
        <arrival publicID="smi:org.gfz-potsdam.de/geofon/Pick/20221116215503.577625.88047_NLL.20221117170218.53264.116304">
          <pickID>smi:org.gfz-potsdam.de/geofon/Pick/20221116215503.577625.88047</pickID>
          <phase>P</phase>
          <timeCorrection>0.0</timeCorrection>
          <azimuth>118.7803512</azimuth>
          <distance>0.4755707842</distance>
          <takeoffAngle>
            <value>91.8</value>
          </takeoffAngle>
          <timeResidual>0.0771454498</timeResidual>
          <timeWeight>0.9379914005</timeWeight>
