<?xml version='1.0' encoding='utf-8'?>
<q:quakeml xmlns="http://quakeml.org/xmlns/bed/1.2" xmlns:q="http://quakeml.org/xmlns/quakeml/1.2">
  <eventParameters publicID="smi:local/3e56f1bc-b41a-4ac8-a8ec-c19f0ef118c3">
    <event publicID="smi:org.gfz-potsdam.de/geofon/texnet2020galz">
      <preferredOriginID>smi:org.gfz-potsdam.de/geofon/NLL.20200416191747.121847.63133</preferredOriginID>
      <preferredMagnitudeID>smi:org.gfz-potsdam.de/geofon/NLL.20200416191747.121847.63133/netMag/ML(TexNet)</preferredMagnitudeID>
      <preferredFocalMechanismID>smi:org.gfz-potsdam.de/geofon/FocalMechanism/20200327224033.238024.163278</preferredFocalMechanismID>
      <type>earthquake</type>
      <typeCertainty>known</typeCertainty>
      <description>
        <text>Western Texas</text>
        <type>region name</type>
      </description>
      <creationInfo>
        <agencyID>TXNet</agencyID>
        <author>scevent@sc3primary.beg.utexas.edu</author>
        <creationTime>2020-03-26T15:16:42.659244Z</creationTime>
      </creationInfo>
      <origin publicID="smi:org.gfz-potsdam.de/geofon/NLL.20200416191747.121847.63133">
        <time>
          <value>2020-03-26T15:16:27.844763Z</value>
        </time>
        <latitude>
          <value>31.70250443</value>
          <uncertainty>0.4829126</uncertainty>
        </latitude>
        <longitude>
          <value>-104.0521372</value>
          <uncertainty>0.5536388507</uncertainty>
        </longitude>
        <depth>
          <value>6157.275391</value>
          <uncertainty>1900.152834</uncertainty>
        </depth>
        <methodID>smi:org.gfz-potsdam.de/geofon/NonLinLoc</methodID>
        <earthModelID>smi:org.gfz-potsdam.de/geofon/PB1D-20170918-topoLV</earthModelID>
        <quality>
          <associatedPhaseCount>84</associatedPhaseCount>
          <usedPhaseCount>48</usedPhaseCount>
          <usedStationCount>31</usedStationCount>
          <standardError>0.2815587328</standardError>
          <azimuthalGap>49.353744</azimuthalGap>
          <secondaryAzimuthalGap>93.10250305</secondaryAzimuthalGap>
          <groundTruthLevel>-</groundTruthLevel>
          <minimumDistance>0.224160181</minimumDistance>
          <maximumDistance>0.795902985</maximumDistance>
          <medianDistance>0.5814609527</medianDistance>
        </quality>
        <evaluationMode>manual</evaluationMode>
        <evaluationStatus>final</evaluationStatus>
        <creationInfo>
          <agencyID>TXNet</agencyID>
          <author>Tricia</author>
          <creationTime>2020-04-16T19:17:48.920720Z</creationTime>
        </creationInfo>
        <originUncertainty>
          <horizontalUncertainty>913.7805628</horizontalUncertainty>
          <minHorizontalUncertainty>637.4655775</minHorizontalUncertainty>
          <maxHorizontalUncertainty>913.7805628</maxHorizontalUncertainty>
          <azimuthMaxHorizontalUncertainty>56.58254237</azimuthMaxHorizontalUncertainty>
          <confidenceEllipsoid>
            <semiMajorAxisLength>3577269.811</semiMajorAxisLength>
            <semiMinorAxisLength>786440.268</semiMinorAxisLength>
            <semiIntermediateAxisLength>1111402.794</semiIntermediateAxisLength>
            <majorAxisPlunge>3.816643974</majorAxisPlunge>
            <majorAxisAzimuth>-163.9444627</majorAxisAzimuth>
            <majorAxisRotation>91.22645971</majorAxisRotation>
          </confidenceEllipsoid>
        </originUncertainty>
        <arrival publicID="smi:org.gfz-potsdam.de/geofon/Pick/20200326152204.026602.256215_NLL.20200416191747.121847.63133">
          <pickID>smi:org.gfz-potsdam.de/geofon/Pick/20200326152204.026602.256215</pickID>
          <phase>P</phase>
          <timeCorrection>0.0</timeCorrection>
          <azimuth>110.7805778</azimuth>
          <distance>0.3500816135</distance>
          <takeoffAngle>
            <value>82.0</value>
          </takeoffAngle>
          <timeResidual>0.195709865</timeResidual>
          <timeWeight>1.176902854</timeWeight>
        </arrival>
        <arrival publicID="smi:org.gfz-potsdam.de/geofon/Pick/20200326152204.026802.256217_NLL.20200416191747.121847.63133">
          <pickID>smi:org.gfz-potsdam.de/geofon/Pick/20200326152204.026802.256217</pickID>
          <phase>P</phase>
          <timeCorrection>0.0</timeCorrection>
          <azimuth>154.7843702</azimuth>
          <distance>0.3682233867</distance>
          <takeoffAngle>
            <value>81.9</value>
          </takeoffAngle>
          <timeResidual>-0.1210145258</timeResidual>
          <timeWeight>1.225421863</timeWeight>
        </arrival>
        <arrival publicID="smi:org.gfz-potsdam.de/geofon/Pick/20200326152204.026844.256218_NLL.20200416191747.121847.63133">
          <pickID>smi:org.gfz-potsdam.de/geofon/Pick/20200326152204.026844.256218</pickID>
          <phase>P</phase>
          <timeCorrection>0.0</timeCorrection>
          <azimuth>148.9769613</azimuth>
          <distance>0.4905716128</distance>
          <takeoffAngle>
            <value>81.7</value>
          </takeoffAngle>
          <timeResidual>-0.08404994439</timeResidual>
          <timeWeight>1.224036825</timeWeight>
        </arrival>
        <arrival publicID="smi:org.gfz-potsdam.de/geofon/Pick/20200326152204.026887.256219_NLL.20200416191747.121847.63133">
          <pickID>smi:org.gfz-potsdam.de/geofon/Pick/20200326152204.026887.256219</pickID>
          <phase>P</phase>
          <timeCorrection>0.0</timeCorrection>
          <azimuth>122.5603041</azimuth>
          <distance>0.5481873156</distance>
          <takeoffAngle>
            <value>81.7</value>
          </takeoffAngle>
          <timeResidual>0.07918253759</timeResidual>
          <timeWeight>1.08206638</timeWeight>
        </arrival>
        <arrival publicID="smi:org.gfz-potsdam.de/geofon/Pick/20200326152204.026919.256220_NLL.20200416191747.121847.63133">
          <pickID>smi:org.gfz-potsdam.de/geofon/Pick/20200326152204.026919.256220</pickID>
          <phase>S</phase>
          <timeCorrection>0.0</timeCorrection>
          <azimuth>122.5603041</azimuth>
          <distance>0.5481873156</distance>
          <takeoffAngle>
            <value>81.7</value>
          </takeoffAngle>
          <timeResidual>-0.1209269936</timeResidual>
          <timeWeight>1.083926293</timeWeight>
        </arrival>
        <arrival publicID="smi:org.gfz-potsdam.de/geofon/Pick/20200326152204.026952.256221_NLL.20200416191747.121847.63133">
          <pickID>smi:org.gfz-potsdam.de/geofon/Pick/20200326152204.026952.256221</pickID>
          <phase>S</phase>
          <timeCorrection>0.0</timeCorrection>
          <azimuth>122.99249</azimuth>
          <distance>0.5761798089</distance>
          <takeoffAngle>
            <value>81.6</value>
          </takeoffAngle>
          <timeResidual>-0.2880656391</timeResidual>
          <timeWeight>1.032329525</timeWeight>
        </arrival>
        <arrival publicID="smi:org.gfz-potsdam.de/geofon/Pick/20200326152204.026985.256222_NLL.20200416191747.121847.63133">
          <pickID>smi:org.gfz-potsdam.de/geofon/Pick/20200326152204.026985.256222</pickID>
          <phase>P</phase>
          <timeCorrection>0.0</timeCorrection>
          <azimuth>122.99249</azimuth>
          <distance>0.5761798089</distance>
          <takeoffAngle>
            <value>81.7</value>
          </takeoffAngle>
          <timeResidual>0.1859723624</timeResidual>
          <timeWeight>1.102246009</timeWeight>
        </arrival>
        <arrival publicID="smi:org.gfz-potsdam.de/geofon/Pick/20200326152204.027024.256223_NLL.20200416191747.121847.63133">
          <pickID>smi:org.gfz-potsdam.de/geofon/Pick/20200326152204.027024.256223</pickID>
          <phase>P</phase>
          <timeCorrection>0.0</timeCorrection>
          <azimuth>170.8810044</azimuth>
          <distance>0.4966281256</distance>
          <takeoffAngle>
            <value>81.7</value>
          </takeoffAngle>
          <timeResidual>-0.1338891651</timeResidual>
          <timeWeight>1.215316903</timeWeight>
        </arrival>
        <arrival publicID="smi:org.gfz-potsdam.de/geofon/Pick/20200326152204.027057.256224_NLL.20200416191747.121847.63133">
          <pickID>smi:org.gfz-potsdam.de/geofon/Pick/20200326152204.027057.256224</pickID>
          <phase>S</phase>
          <timeCorrection>0.0</timeCorrection>
          <azimuth>170.8810044</azimuth>
          <distance>0.4966281256</distance>
          <takeoffAngle>
            <value>81.7</value>
          </takeoffAngle>
          <timeResidual>-0.4160116802</timeResidual>
          <timeWeight>0.9640854236</timeWeight>
        </arrival>
        <arrival publicID="smi:org.gfz-potsdam.de/geofon/Pick/20200326152204.027216.256226_NLL.20200416191747.121847.63133">
          <pickID>smi:org.gfz-potsdam.de/geofon/Pick/20200326152204.027216.256226</pickID>
          <phase>S</phase>
          <timeCorrection>0.0</timeCorrection>
          <azimuth>4.012871371</azimuth>
          <distance>0.233892358</distance>
          <takeoffAngle>
            <value>82.5</value>
          </takeoffAngle>
          <timeResidual>-0.2595788853</timeResidual>
          <timeWeight>0.9919880986</timeWeight>
        </arrival>
        <arrival publicID="smi:org.gfz-potsdam.de/geofon/Pick/20200326152204.027277.256228_NLL.20200416191747.121847.63133">
          <pickID>smi:org.gfz-potsdam.de/geofon/Pick/20200326152204.027277.256228</pickID>
          <phase>P</phase>
          <timeCorrection>0.0</timeCorrection>
          <azimuth>116.0686531</azimuth>
          <distance>0.7417623981</distance>
          <takeoffAngle>
            <value>79.0</value>
          </takeoffAngle>
          <timeResidual>-0.0182809371</timeResidual>
          <timeWeight>1.099672303</timeWeight>
        </arrival>
        <arrival publicID="smi:org.gfz-potsdam.de/geofon/Pick/20200326152204.02731.256229_NLL.20200416191747.121847.63133">
          <pickID>smi:org.gfz-potsdam.de/geofon/Pick/20200326152204.02731.256229</pickID>
          <phase>P</phase>
          <timeCorrection>0.0</timeCorrection>
          <azimuth>124.2280845</azimuth>
          <distance>0.7529646196</distance>
          <takeoffAngle>
            <value>77.1</value>
          </takeoffAngle>
          <timeResidual>-0.02458800061</timeResidual>
          <timeWeight>1.002333553</timeWeight>
        </arrival>
        <arrival publicID="smi:org.gfz-potsdam.de/geofon/Pick/20200326152204.027345.256230_NLL.20200416191747.121847.63133">
          <pickID>smi:org.gfz-potsdam.de/geofon/Pick/20200326152204.027345.256230</pickID>
          <phase>S</phase>
          <timeCorrection>0.0</timeCorrection>
          <azimuth>124.2280845</azimuth>
          <distance>0.7529646196</distance>
          <takeoffAngle>
            <value>77.4</value>
          </takeoffAngle>
          <timeResidual>-0.4087711979</timeResidual>
          <timeWeight>0.0</timeWeight>
        </arrival>
        <arrival publicID="smi:org.gfz-potsdam.de/geofon/Pick/20200326152313.186867.256298_NLL.20200416191747.121847.63133">
          <pickID>smi:org.gfz-potsdam.de/geofon/Pick/20200326152313.186867.256298</pickID>
          <phase>P</phase>
          <timeCorrection>0.0</timeCorrection>
          <azimuth>265.2984552</azimuth>
          <distance>0.3839104888</distance>
          <takeoffAngle>
            <value>81.9</value>
          </takeoffAngle>
          <timeResidual>0.3002648438</timeResidual>
          <timeWeight>0.8733140939</timeWeight>
        </arrival>
        <arrival publicID="smi:org.gfz-potsdam.de/geofon/Pick/20200326152313.187024.256299_NLL.20200416191747.121847.63133">
          <pickID>smi:org.gfz-potsdam.de/geofon/Pick/20200326152313.187024.256299</pickID>
          <phase>S</phase>
          <timeCorrection>0.0</timeCorrection>
          <azimuth>265.2984552</azimuth>
          <distance>0.3839104888</distance>
          <takeoffAngle>
            <value>81.9</value>
          </takeoffAngle>
          <timeResidual>-0.4758142045</timeResidual>
          <timeWeight>0.9251397593</timeWeight>
        </arrival>
        <arrival publicID="smi:org.gfz-potsdam.de/geofon/Pick/20200326152313.187063.256300_NLL.20200416191747.121847.63133">
          <pickID>smi:org.gfz-potsdam.de/geofon/Pick/20200326152313.187063.256300</pickID>
          <phase>S</phase>
          <timeCorrection>0.0</timeCorrection>
          <azimuth>277.6950513</azimuth>
          <distance>0.3971195901</distance>
          <takeoffAngle>
            <value>81.8</value>
          </takeoffAngle>
          <timeResidual>-0.515430975</timeResidual>
          <timeWeight>0.8911264778</timeWeight>
        </arrival>
        <arrival publicID="smi:org.gfz-potsdam.de/geofon/Pick/20200326152313.187094.256301_NLL.20200416191747.121847.63133">
          <pickID>smi:org.gfz-potsdam.de/geofon/Pick/20200326152313.187094.256301</pickID>
          <phase>P</phase>
          <timeCorrection>0.0</timeCorrection>
          <azimuth>277.6950513</azimuth>
          <distance>0.3971195901</distance>
          <takeoffAngle>
            <value>81.8</value>
          </takeoffAngle>
          <timeResidual>0.3041654295</timeResidual>
          <timeWeight>0.9288986402</timeWeight>
        </arrival>
        <arrival publicID="smi:org.gfz-potsdam.de/geofon/Pick/20200326152313.187125.256302_NLL.20200416191747.121847.63133">
          <pickID>smi:org.gfz-potsdam.de/geofon/Pick/20200326152313.187125.256302</pickID>
          <phase>P</phase>
          <timeCorrection>0.0</timeCorrection>
          <azimuth>22.92160887</azimuth>
          <distance>0.4201319636</distance>
          <takeoffAngle>
            <value>81.8</value>
          </takeoffAngle>
          <timeResidual>0.1020932844</timeResidual>
          <timeWeight>1.175705793</timeWeight>
        </arrival>
        <arrival publicID="smi:org.gfz-potsdam.de/geofon/Pick/20200326152313.187152.256303_NLL.20200416191747.121847.63133">
          <pickID>smi:org.gfz-potsdam.de/geofon/Pick/20200326152313.187152.256303</pickID>
          <phase>S</phase>
          <timeCorrection>0.0</timeCorrection>
          <azimuth>22.92160887</azimuth>
          <distance>0.4201319636</distance>
          <takeoffAngle>
            <value>81.8</value>
          </takeoffAngle>
          <timeResidual>0.08068189561</timeResidual>
          <timeWeight>1.068226079</timeWeight>
        </arrival>
        <arrival publicID="smi:org.gfz-potsdam.de/geofon/Pick/20200326152313.187183.256304_NLL.20200416191747.121847.63133">
          <pickID>smi:org.gfz-potsdam.de/geofon/Pick/20200326152313.187183.256304</pickID>
          <phase>S</phase>
          <timeCorrection>0.0</timeCorrection>
          <azimuth>148.9769613</azimuth>
          <distance>0.4905716128</distance>
          <takeoffAngle>
            <value>81.7</value>
          </takeoffAngle>
          <timeResidual>-0.04330808606</timeResidual>
          <timeWeight>1.09188406</timeWeight>
        </arrival>
        <arrival publicID="smi:org.gfz-potsdam.de/geofon/Pick/20200326152313.187217.256305_NLL.20200416191747.121847.63133">
          <pickID>smi:org.gfz-potsdam.de/geofon/Pick/20200326152313.187217.256305</pickID>
          <phase>S</phase>
          <timeCorrection>0.0</timeCorrection>
          <azimuth>18.14770822</azimuth>
          <distance>0.5288563627</distance>
          <takeoffAngle>
            <value>81.7</value>
          </takeoffAngle>
          <timeResidual>-0.3349962726</timeResidual>
          <timeWeight>1.013086976</timeWeight>
        </arrival>
        <arrival publicID="smi:org.gfz-potsdam.de/geofon/Pick/20200326152313.187244.256306_NLL.20200416191747.121847.63133">
          <pickID>smi:org.gfz-potsdam.de/geofon/Pick/20200326152313.187244.256306</pickID>
          <phase>P</phase>
          <timeCorrection>0.0</timeCorrection>
          <azimuth>18.14770822</azimuth>
          <distance>0.5288563627</distance>
          <takeoffAngle>
            <value>81.7</value>
          </takeoffAngle>
          <timeResidual>-0.06445016235</timeResidual>
          <timeWeight>1.117464294</timeWeight>
        </arrival>
        <arrival publicID="smi:org.gfz-potsdam.de/geofon/Pick/20200326152313.187274.256307_NLL.20200416191747.121847.63133">
          <pickID>smi:org.gfz-potsdam.de/geofon/Pick/20200326152313.187274.256307</pickID>
          <phase>P</phase>
          <timeCorrection>0.0</timeCorrection>
          <azimuth>46.43214937</azimuth>
          <distance>0.5359472567</distance>
          <takeoffAngle>
            <value>81.7</value>
          </takeoffAngle>
          <timeResidual>0.254650933</timeResidual>
          <timeWeight>0.9690130284</timeWeight>
        </arrival>
        <arrival publicID="smi:org.gfz-potsdam.de/geofon/Pick/20200326152313.187308.256308_NLL.20200416191747.121847.63133">
          <pickID>smi:org.gfz-potsdam.de/geofon/Pick/20200326152313.187308.256308</pickID>
          <phase>P</phase>
          <timeCorrection>0.0</timeCorrection>
          <azimuth>332.3932376</azimuth>
          <distance>0.5650254947</distance>
          <takeoffAngle>
            <value>81.7</value>
          </takeoffAngle>
          <timeResidual>-0.2966547582</timeResidual>
          <timeWeight>1.054811646</timeWeight>
        </arrival>
        <arrival publicID="smi:org.gfz-potsdam.de/geofon/Pick/20200326152358.946492.256577_NLL.20200416191747.121847.63133">
          <pickID>smi:org.gfz-potsdam.de/geofon/Pick/20200326152358.946492.256577</pickID>
          <phase>P</phase>
          <timeCorrection>0.0</timeCorrection>
          <azimuth>132.5731125</azimuth>
          <distance>1.045454945</distance>
          <takeoffAngle>
            <value>72.6</value>
          </takeoffAngle>
          <timeResidual>-0.4048810152</timeResidual>
          <timeWeight>0.0</timeWeight>
        </arrival>
        <arrival publicID="smi:org.gfz-potsdam.de/geofon/Pick/20200326152358.946643.256578_NLL.20200416191747.121847.63133">
          <pickID>smi:org.gfz-potsdam.de/geofon/Pick/20200326152358.946643.256578</pickID>
          <phase>P</phase>
          <timeCorrection>0.0</timeCorrection>
          <azimuth>270.4008298</azimuth>
          <distance>1.133449543</distance>
          <takeoffAngle>
            <value>72.6</value>
          </takeoffAngle>
          <timeResidual>-0.2289881786</timeResidual>
          <timeWeight>0.9678219992</timeWeight>
        </arrival>
        <arrival publicID="smi:org.gfz-potsdam.de/geofon/Pick/20200326152358.946685.256579_NLL.20200416191747.121847.63133">
          <pickID>smi:org.gfz-potsdam.de/geofon/Pick/20200326152358.946685.256579</pickID>
          <phase>P</phase>
          <timeCorrection>0.0</timeCorrection>
          <azimuth>108.1462602</azimuth>
          <distance>1.160328911</distance>
          <takeoffAngle>
            <value>72.6</value>
          </takeoffAngle>
          <timeResidual>-1.099300056</timeResidual>
          <timeWeight>0.0</timeWeight>
        </arrival>
        <arrival publicID="smi:org.gfz-potsdam.de/geofon/Pick/20200326152358.946718.256580_NLL.20200416191747.121847.63133">
          <pickID>smi:org.gfz-potsdam.de/geofon/Pick/20200326152358.946718.256580</pickID>
          <phase>P</phase>
          <timeCorrection>0.0</timeCorrection>
          <azimuth>221.5496962</azimuth>
          <distance>1.216620085</distance>
          <takeoffAngle>
            <value>72.6</value>
          </takeoffAngle>
          <timeResidual>-0.7912819388</timeResidual>
          <timeWeight>0.6320952365</timeWeight>
        </arrival>
        <arrival publicID="smi:org.gfz-potsdam.de/geofon/Pick/20200326153452.37426.258036_NLL.20200416191747.121847.63133">
          <pickID>smi:org.gfz-potsdam.de/geofon/Pick/20200326153452.37426.258036</pickID>
          <phase>P</phase>
          <timeCorrection>0.0</timeCorrection>
          <azimuth>4.012871371</azimuth>
          <distance>0.233892358</distance>
          <takeoffAngle>
            <value>82.5</value>
